{"fetched_at":"2026-03-29T16:36:15Z","count":15609,"tles":[{"name":"STARLINK-33717","line1":"1 63648U 25083Q   26087.80941616  .00024623  00000+0  90020-3 0  9993","line2":"2 63648  42.9998 257.0036 0001747 271.9268  88.1383 15.27620644 52990","category":"Starlink"}]}