{
  "norad_id": 63648,
  "name": "STARLINK-33717",
  "history": [
    {
      "epoch": "2026-03-28T19:25:33.556224Z",
      "apogee_km": 484.12650420490627,
      "perigee_km": 481.7282877559346,
      "latitude_deg": -3.0262719963097155e-05,
      "longitude_deg": 139.3892172632931,
      "height_km": 482.6640418926178,
      "semi_major_axis_km": 6861.06439598042,
      "eccentricity": 0.00017477,
      "inclination_deg": 42.9998,
      "raan_deg": 257.0036,
      "arg_perigee_deg": 271.9268,
      "mean_anomaly_deg": 88.1383,
      "mean_motion_rev_day": 15.27620644
    }
  ]
}